start=new Date('2022-12-18T00:00:00.000Z').valueOf();
sats=[{"PERIOD":"95.593","OBJECT_TYPE":"PAYLOAD","REF_FRAME":"TEME","EPOCH":"2022-12-17T11:32:06.958176","INCLINATION":"53.0550","OBJECT_ID":"2020-062J","SITE":"AFETR","DECAY_DATE":null,"REV_AT_EPOCH":"12672","CLASSIFICATION_TYPE":"U","CENTER_NAME":"EARTH","TLE_LINE1":"1 46333U 20062J   22351.48063609  .00001121  00000-0  94203-4 0  9995","MEAN_MOTION_DOT":"0.00001121","RCS_SIZE":"LARGE","OBJECT_NAME":"STARLINK-1723","EPHEMERIS_TYPE":"0","FILE":"3705911","APOAPSIS":"548.466","SEMIMAJOR_AXIS":"6925.386","LAUNCH_DATE":"2020-09-03","BSTAR":"0.00009420300000","MEAN_ELEMENT_THEORY":"SGP4","MEAN_MOTION_DDOT":"0.0000000000000","NORAD_CAT_ID":"46333","MEAN_MOTION":"15.06387819","TLE_LINE2":"2 46333  53.0550 265.8044 0001754  53.8829 306.2322 15.06387819126724","ARG_OF_PERICENTER":"53.8829","MEAN_ANOMALY":"306.2322","ELEMENT_SET_NO":"999","GP_ID":"220702002","COUNTRY_CODE":"US","ECCENTRICITY":"0.00017540","RA_OF_ASC_NODE":"265.8044","PERIAPSIS":"546.036","TIME_SYSTEM":"UTC"},{"TLE_LINE2":"2 46334  53.0556 246.3809 0001397  71.1845 288.9296 15.06387901127176","MEAN_MOTION":"15.06387901","ARG_OF_PERICENTER":"71.1845","MEAN_ANOMALY":"288.9296","ELEMENT_SET_NO":"999","GP_ID":"220722162","COUNTRY_CODE":"US","ECCENTRICITY":"0.00013970","RA_OF_ASC_NODE":"246.3809","PERIAPSIS":"546.283","TIME_SYSTEM":"UTC","PERIOD":"95.593","OBJECT_TYPE":"PAYLOAD","REF_FRAME":"TEME","EPOCH":"2022-12-17T09:59:16.853856","INCLINATION":"53.0556","OBJECT_ID":"2020-062K","SITE":"AFETR","CENTER_NAME":"EARTH","DECAY_DATE":null,"REV_AT_EPOCH":"12717","CLASSIFICATION_TYPE":"U","MEAN_MOTION_DOT":"-0.00000776","TLE_LINE1":"1 46334U 20062K   22351.41616729 -.00000776  00000-0 -33220-4 0  9995","RCS_SIZE":"LARGE","OBJECT_NAME":"STARLINK-1725","EPHEMERIS_TYPE":"0","FILE":"3706526","APOAPSIS":"548.218","SEMIMAJOR_AXIS":"6925.386","BSTAR":"-0.00003322000000","LAUNCH_DATE":"2020-09-03","MEAN_ELEMENT_THEORY":"SGP4","MEAN_MOTION_DDOT":"0.0000000000000","NORAD_CAT_ID":"46334"},{"TLE_LINE1":"1 46335U 20062L   22351.17838067 -.00001994  00000-0 -11505-3 0  9994","MEAN_MOTION_DOT":"-0.00001994","RCS_SIZE":"LARGE","OBJECT_NAME":"STARLINK-1727","EPHEMERIS_TYPE":"0","FILE":"3705911","APOAPSIS":"548.437","SEMIMAJOR_AXIS":"6925.383","LAUNCH_DATE":"2020-09-03","BSTAR":"-0.00011505000000","MEAN_ELEMENT_THEORY":"SGP4","MEAN_MOTION_DDOT":"0.0000000000000","NORAD_CAT_ID":"46335","PERIOD":"95.593","REF_FRAME":"TEME","OBJECT_TYPE":"PAYLOAD","EPOCH":"2022-12-17T04:16:52.089888","INCLINATION":"53.0525","OBJECT_ID":"2020-062L","SITE":"AFETR","DECAY_DATE":null,"CENTER_NAME":"EARTH","REV_AT_EPOCH":"12668","CLASSIFICATION_TYPE":"U","ECCENTRICITY":"0.00017170","RA_OF_ASC_NODE":"267.1737","PERIAPSIS":"546.059","TIME_SYSTEM":"UTC","TLE_LINE2":"2 46335  53.0525 267.1737 0001717  50.1567 309.9573 15.06388837126684","MEAN_MOTION":"15.06388837","ARG_OF_PERICENTER":"50.1567","MEAN_ANOMALY":"309.9573","ELEMENT_SET_NO":"999","GP_ID":"220703497","COUNTRY_CODE":"US"},{"MEAN_MOTION_DDOT":"0.0000000000000","NORAD_CAT_ID":"46336","MEAN_ELEMENT_THEORY":"SGP4","SEMIMAJOR_AXIS":"6925.358","BSTAR":"0.00015166000000","LAUNCH_DATE":"2020-09-03","APOAPSIS":"548.403","EPHEMERIS_TYPE":"0","FILE":"3707070","OBJECT_NAME":"STARLINK-1738","TLE_LINE1":"1 46336U 20062M   22351.69995168  .00001978  00000-0  15166-3 0  9995","MEAN_MOTION_DOT":"0.00001978","RCS_SIZE":"LARGE","REV_AT_EPOCH":"12703","DECAY_DATE":null,"CLASSIFICATION_TYPE":"U","CENTER_NAME":"EARTH","SITE":"AFETR","OBJECT_ID":"2020-062M","INCLINATION":"53.0550","EPOCH":"2022-12-17T16:47:55.825152","PERIOD":"95.592","REF_FRAME":"TEME","OBJECT_TYPE":"PAYLOAD","TIME_SYSTEM":"UTC","PERIAPSIS":"546.043","RA_OF_ASC_NODE":"244.8176","ECCENTRICITY":"0.00017040","COUNTRY_CODE":"US","GP_ID":"220754913","ELEMENT_SET_NO":"999","MEAN_ANOMALY":"306.0776","TLE_LINE2":"2 46336  53.0550 244.8176 0001704  54.0371 306.0776 15.06397030127032","MEAN_MOTION":"15.06397030","ARG_OF_PERICENTER":"54.0371"},{"TIME_SYSTEM":"UTC","PERIAPSIS":"546.047","RA_OF_ASC_NODE":"245.9547","ECCENTRICITY":"0.00017240","COUNTRY_CODE":"US","GP_ID":"220712558","ELEMENT_SET_NO":"999","MEAN_ANOMALY":"300.0341","ARG_OF_PERICENTER":"60.0819","TLE_LINE2":"2 46337  53.0542 245.9547 0001724  60.0819 300.0341 15.06391089127180","MEAN_MOTION":"15.06391089","NORAD_CAT_ID":"46337","MEAN_MOTION_DDOT":"0.0000000000000","MEAN_ELEMENT_THEORY":"SGP4","BSTAR":"0.00004571300000","LAUNCH_DATE":"2020-09-03","SEMIMAJOR_AXIS":"6925.376","APOAPSIS":"548.435","FILE":"3706045","EPHEMERIS_TYPE":"0","OBJECT_NAME":"STARLINK-1750","RCS_SIZE":"LARGE","TLE_LINE1":"1 46337U 20062N   22351.44930280  .00000399  00000-0  45713-4 0  9991","MEAN_MOTION_DOT":"0.00000399","CLASSIFICATION_TYPE":"U","DECAY_DATE":null,"REV_AT_EPOCH":"12718","CENTER_NAME":"EARTH","SITE":"AFETR","OBJECT_ID":"2020-062N","INCLINATION":"53.0542","EPOCH":"2022-12-17T10:46:59.761920","OBJECT_TYPE":"PAYLOAD","REF_FRAME":"TEME","PERIOD":"95.593"},{"ECCENTRICITY":"0.00017310","TIME_SYSTEM":"UTC","RA_OF_ASC_NODE":"264.5415","PERIAPSIS":"546.038","MEAN_ANOMALY":"293.6320","ARG_OF_PERICENTER":"66.4850","MEAN_MOTION":"15.06392540","TLE_LINE2":"2 46338  53.0541 264.5415 0001731  66.4850 293.6320 15.06392540126764","GP_ID":"220753911","COUNTRY_CODE":"US","ELEMENT_SET_NO":"999","FILE":"3707070","EPHEMERIS_TYPE":"0","RCS_SIZE":"LARGE","MEAN_MOTION_DOT":"-0.00001158","TLE_LINE1":"1 46338U 20062P   22351.76445041 -.00001158  00000-0 -58836-4 0  9999","OBJECT_NAME":"STARLINK-1752","MEAN_ELEMENT_THEORY":"SGP4","NORAD_CAT_ID":"46338","MEAN_MOTION_DDOT":"0.0000000000000","APOAPSIS":"548.435","LAUNCH_DATE":"2020-09-03","BSTAR":"-0.00005883600000","SEMIMAJOR_AXIS":"6925.371","REF_FRAME":"TEME","OBJECT_TYPE":"PAYLOAD","PERIOD":"95.593","EPOCH":"2022-12-17T18:20:48.515424","SITE":"AFETR","DECAY_DATE":null,"CLASSIFICATION_TYPE":"U","REV_AT_EPOCH":"12676","CENTER_NAME":"EARTH","INCLINATION":"53.0541","OBJECT_ID":"2020-062P"},{"EPHEMERIS_TYPE":"0","FILE":"3705911","OBJECT_NAME":"STARLINK-1759","MEAN_MOTION_DOT":"-0.00000590","TLE_LINE1":"1 46340U 20062R   22351.47326832 -.00000590  00000-0 -20706-4 0  9990","RCS_SIZE":"LARGE","MEAN_MOTION_DDOT":"0.0000000000000","NORAD_CAT_ID":"46340","MEAN_ELEMENT_THEORY":"SGP4","SEMIMAJOR_AXIS":"6925.398","LAUNCH_DATE":"2020-09-03","BSTAR":"-0.00002070600000","APOAPSIS":"548.213","EPOCH":"2022-12-17T11:21:30.382848","PERIOD":"95.593","OBJECT_TYPE":"PAYLOAD","REF_FRAME":"TEME","DECAY_DATE":null,"CLASSIFICATION_TYPE":"U","REV_AT_EPOCH":"12671","CENTER_NAME":"EARTH","SITE":"AFETR","OBJECT_ID":"2020-062R","INCLINATION":"53.0549","ECCENTRICITY":"0.00013710","TIME_SYSTEM":"UTC","PERIAPSIS":"546.314","RA_OF_ASC_NODE":"265.8600","MEAN_ANOMALY":"274.2108","MEAN_MOTION":"15.06383790","TLE_LINE2":"2 46340  53.0549 265.8600 0001371  85.9038 274.2108 15.06383790126710","ARG_OF_PERICENTER":"85.9038","COUNTRY_CODE":"US","GP_ID":"220702999","ELEMENT_SET_NO":"999"},{"ARG_OF_PERICENTER":"57.8382","TLE_LINE2":"2 46341  53.0545 246.1221 0001559  57.8382 302.2758 15.06377322127006","MEAN_MOTION":"15.06377322","MEAN_ANOMALY":"302.2758","ELEMENT_SET_NO":"999","GP_ID":"220703728","COUNTRY_CODE":"US","ECCENTRICITY":"0.00015590","RA_OF_ASC_NODE":"246.1221","PERIAPSIS":"546.203","TIME_SYSTEM":"UTC","REF_FRAME":"TEME","OBJECT_TYPE":"PAYLOAD","PERIOD":"95.594","EPOCH":"2022-12-17T09:53:55.197024","INCLINATION":"53.0545","OBJECT_ID":"2020-062S","SITE":"AFETR","DECAY_DATE":null,"REV_AT_EPOCH":"12700","CENTER_NAME":"EARTH","CLASSIFICATION_TYPE":"U","RCS_SIZE":"LARGE","TLE_LINE1":"1 46341U 20062S   22351.41244441  .00003964  00000-0  28500-3 0  9995","MEAN_MOTION_DOT":"0.00003964","OBJECT_NAME":"STARLINK-1760","FILE":"3705911","EPHEMERIS_TYPE":"0","APOAPSIS":"548.363","LAUNCH_DATE":"2020-09-03","BSTAR":"0.00028500000000","SEMIMAJOR_AXIS":"6925.418","MEAN_ELEMENT_THEORY":"SGP4","NORAD_CAT_ID":"46341","MEAN_MOTION_DDOT":"0.0000000000000"},{"SITE":"AFETR","REV_AT_EPOCH":"12690","DECAY_DATE":null,"CLASSIFICATION_TYPE":"U","CENTER_NAME":"EARTH","INCLINATION":"53.0530","OBJECT_ID":"2020-062T","OBJECT_TYPE":"PAYLOAD","REF_FRAME":"TEME","PERIOD":"95.593","EPOCH":"2022-12-17T11:00:16.359552","MEAN_ELEMENT_THEORY":"SGP4","NORAD_CAT_ID":"46342","MEAN_MOTION_DDOT":"0.0000000000000","APOAPSIS":"548.282","BSTAR":"0.00004164600000","LAUNCH_DATE":"2020-09-03","SEMIMAJOR_AXIS":"6925.409","FILE":"3705991","EPHEMERIS_TYPE":"0","RCS_SIZE":"LARGE","TLE_LINE1":"1 46342U 20062T   22351.45852268  .00000339  00000-0  41646-4 0  9992","MEAN_MOTION_DOT":"0.00000339","OBJECT_NAME":"STARLINK-1762","GP_ID":"220711283","COUNTRY_CODE":"US","ELEMENT_SET_NO":"999","MEAN_ANOMALY":"282.3066","ARG_OF_PERICENTER":"77.8085","MEAN_MOTION":"15.06380296","TLE_LINE2":"2 46342  53.0530 265.9157 0001455  77.8085 282.3066 15.06380296126907","TIME_SYSTEM":"UTC","RA_OF_ASC_NODE":"265.9157","PERIAPSIS":"546.266","ECCENTRICITY":"0.00014550"},{"MEAN_ANOMALY":"279.8702","MEAN_MOTION":"15.06397387","TLE_LINE2":"2 46343  53.0539 244.1432 0001447  80.2450 279.8702 15.06397387127062","ARG_OF_PERICENTER":"80.2450","COUNTRY_CODE":"US","GP_ID":"220753412","ELEMENT_SET_NO":"999","ECCENTRICITY":"0.00014470","TIME_SYSTEM":"UTC","PERIAPSIS":"546.219","RA_OF_ASC_NODE":"244.1432","EPOCH":"2022-12-17T20:25:32.003040","PERIOD":"95.592","REF_FRAME":"TEME","OBJECT_TYPE":"PAYLOAD","DECAY_DATE":null,"CENTER_NAME":"EARTH","REV_AT_EPOCH":"12706","CLASSIFICATION_TYPE":"U","SITE":"AFETR","OBJECT_ID":"2020-062U","INCLINATION":"53.0539","EPHEMERIS_TYPE":"0","FILE":"3707070","OBJECT_NAME":"STARLINK-1764","TLE_LINE1":"1 46343U 20062U   22351.85106485  .00000661  00000-0  63257-4 0  9990","MEAN_MOTION_DOT":"0.00000661","RCS_SIZE":"LARGE","MEAN_MOTION_DDOT":"0.0000000000000","NORAD_CAT_ID":"46343","MEAN_ELEMENT_THEORY":"SGP4","SEMIMAJOR_AXIS":"6925.357","BSTAR":"0.00006325700000","LAUNCH_DATE":"2020-09-03","APOAPSIS":"548.224"}];
